{
  "norad_id": 66426,
  "name": "STARLINK-35589",
  "history": [
    {
      "epoch": "2026-03-28T22:18:53.527680",
      "apogee_km": 483.2424923456065,
      "perigee_km": 482.8006337341467,
      "latitude_deg": 11.035625294948863,
      "longitude_deg": -168.14052479993552,
      "semi_major_axis_km": 6861.158563039877,
      "eccentricity": 3.22e-05,
      "inclination_deg": 43.0025,
      "raan_deg": 165.7074,
      "arg_perigee_deg": 85.2436,
      "mean_anomaly_deg": 274.8453,
      "mean_motion_rev_day": 15.27589195
    }
  ]
}