{"fetched_at":"2026-03-29T16:36:15Z","count":15609,"tles":[{"name":"STARLINK-35589","line1":"1 66426U 25259E   26087.92978620  .00022234  00000+0  81483-3 0  9992","line2":"2 66426  43.0025 165.7074 0000322  85.2436 274.8453 15.27589195 22431","category":"Starlink"}]}